stk.v.4.3 

BEGIN Ephemeris 
 
NumberOfEphemerisPoints		146 
ScenarioEpoch	    1 Sep 2020 17:18:55.655128956 
InterpolationMethod		Lagrange 
InterpolationOrder		5 
CentralBody				Earth 
CoordinateSystem			TEME 
CoordinateSystemEpoch	  1 Sep 2020 17:18:55.655128956 
DistanceUnit			Kilometers 
 
EphemerisTimePosVel 
 
       0.00000000   -4177.93706848    5812.81839317       0.04250527 -0.375058050 -0.281264120  7.449123610
 END Ephemeris 
